start=new Date('2022-07-21T00:00:00.000Z').valueOf();
sats=[{"RCS_SIZE":"LARGE","ARG_OF_PERICENTER":"84.7299","OBJECT_TYPE":"PAYLOAD","PERIAPSIS":"546.268","MEAN_MOTION_DOT":"0.00000708","BSTAR":"0.00006643200000","SEMIMAJOR_AXIS":"6925.350","LAUNCH_DATE":"2021-04-29","COUNTRY_CODE":"US","INCLINATION":"53.0545","SITE":"AFETR","CLASSIFICATION_TYPE":"U","TLE_LINE1":"1 48314U 21036AQ  22201.74533272  .00000708  00000-0  66432-4 0  9992","REV_AT_EPOCH":"6801","ECCENTRICITY":"0.00013670","PERIOD":"95.592","EPOCH":"2022-07-20T17:53:16.747008","OBJECT_ID":"2021-036AQ","NORAD_CAT_ID":"48314","EPHEMERIS_TYPE":"0","FILE":"3518363","ELEMENT_SET_NO":"999","MEAN_ANOMALY":"275.3846","MEAN_ELEMENT_THEORY":"SGP4","RA_OF_ASC_NODE":"293.0051","OBJECT_NAME":"STARLINK-2549","APOAPSIS":"548.161","CENTER_NAME":"EARTH","TLE_LINE2":"2 48314  53.0545 293.0051 0001367  84.7299 275.3846 15.06399605 68014","GP_ID":"208533204","REF_FRAME":"TEME","TIME_SYSTEM":"UTC","MEAN_MOTION_DDOT":"0.0000000000000","DECAY_DATE":null,"MEAN_MOTION":"15.06399605"},{"RCS_SIZE":"LARGE","ARG_OF_PERICENTER":"79.7589","BSTAR":"0.00019609000000","OBJECT_TYPE":"PAYLOAD","PERIAPSIS":"546.217","MEAN_MOTION_DOT":"0.00002641","SEMIMAJOR_AXIS":"6925.313","LAUNCH_DATE":"2021-04-29","COUNTRY_CODE":"US","INCLINATION":"53.0535","SITE":"AFETR","CLASSIFICATION_TYPE":"U","TLE_LINE1":"1 48315U 21036AR  22201.74068695  .00002641  00000-0  19609-3 0  9996","REV_AT_EPOCH":"6801","PERIOD":"95.591","ECCENTRICITY":"0.00013880","OBJECT_ID":"2021-036AR","EPOCH":"2022-07-20T17:46:35.352480","NORAD_CAT_ID":"48315","EPHEMERIS_TYPE":"0","FILE":"3518363","ELEMENT_SET_NO":"999","MEAN_ANOMALY":"280.3556","MEAN_ELEMENT_THEORY":"SGP4","RA_OF_ASC_NODE":"293.0008","OBJECT_NAME":"STARLINK-2506","APOAPSIS":"548.139","TLE_LINE2":"2 48315  53.0535 293.0008 0001388  79.7589 280.3556 15.06411519 68018","CENTER_NAME":"EARTH","GP_ID":"208533956","TIME_SYSTEM":"UTC","REF_FRAME":"TEME","MEAN_MOTION_DDOT":"0.0000000000000","DECAY_DATE":null,"MEAN_MOTION":"15.06411519"},{"FILE":"3518363","ELEMENT_SET_NO":"999","MEAN_ANOMALY":"289.8123","MEAN_ELEMENT_THEORY":"SGP4","NORAD_CAT_ID":"48316","EPHEMERIS_TYPE":"0","APOAPSIS":"548.159","RA_OF_ASC_NODE":"293.6204","OBJECT_NAME":"STARLINK-2507","TLE_LINE2":"2 48316  53.0533 293.6204 0001470  70.3024 289.8123 15.06423838 67991","CENTER_NAME":"EARTH","GP_ID":"208534207","TIME_SYSTEM":"UTC","REF_FRAME":"TEME","MEAN_MOTION_DDOT":"0.0000000000000","MEAN_MOTION":"15.06423838","DECAY_DATE":null,"ARG_OF_PERICENTER":"70.3024","PERIAPSIS":"546.122","OBJECT_TYPE":"PAYLOAD","BSTAR":"0.00042525000000","MEAN_MOTION_DOT":"0.00006062","RCS_SIZE":"LARGE","SEMIMAJOR_AXIS":"6925.275","LAUNCH_DATE":"2021-04-29","COUNTRY_CODE":"US","INCLINATION":"53.0533","ECCENTRICITY":"0.00014700","PERIOD":"95.591","OBJECT_ID":"2021-036AS","EPOCH":"2022-07-20T14:31:34.353408","CLASSIFICATION_TYPE":"U","SITE":"AFETR","TLE_LINE1":"1 48316U 21036AS  22201.60525872  .00006062  00000-0  42525-3 0  9991","REV_AT_EPOCH":"6799"},{"SEMIMAJOR_AXIS":"6925.282","LAUNCH_DATE":"2021-04-29","RCS_SIZE":"LARGE","ARG_OF_PERICENTER":"78.3216","PERIAPSIS":"546.112","OBJECT_TYPE":"PAYLOAD","BSTAR":"0.00050959000000","MEAN_MOTION_DOT":"0.00007321","SITE":"AFETR","CLASSIFICATION_TYPE":"U","TLE_LINE1":"1 48317U 21036AT  22201.73426327  .00007321  00000-0  50959-3 0  9990","REV_AT_EPOCH":"6801","ECCENTRICITY":"0.00014950","PERIOD":"95.591","OBJECT_ID":"2021-036AT","EPOCH":"2022-07-20T17:37:20.346528","COUNTRY_CODE":"US","INCLINATION":"53.0533","RA_OF_ASC_NODE":"293.0451","OBJECT_NAME":"STARLINK-2513","APOAPSIS":"548.182","NORAD_CAT_ID":"48317","EPHEMERIS_TYPE":"0","FILE":"3518363","ELEMENT_SET_NO":"999","MEAN_ANOMALY":"281.7941","MEAN_ELEMENT_THEORY":"SGP4","TIME_SYSTEM":"UTC","REF_FRAME":"TEME","MEAN_MOTION_DDOT":"0.0000000000000","MEAN_MOTION":"15.06421670","DECAY_DATE":null,"TLE_LINE2":"2 48317  53.0533 293.0451 0001495  78.3216 281.7941 15.06421670 68013","CENTER_NAME":"EARTH","GP_ID":"208534958"},{"INCLINATION":"53.0541","COUNTRY_CODE":"US","REV_AT_EPOCH":"6786","TLE_LINE1":"1 48318U 21036AU  22201.65962294  .00002437  00000-0  18242-3 0  9992","SITE":"AFETR","CLASSIFICATION_TYPE":"U","OBJECT_ID":"2021-036AU","EPOCH":"2022-07-20T15:49:51.422016","PERIOD":"95.591","ECCENTRICITY":"0.00015230","RCS_SIZE":"LARGE","OBJECT_TYPE":"PAYLOAD","PERIAPSIS":"546.127","MEAN_MOTION_DOT":"0.00002437","BSTAR":"0.00018242000000","ARG_OF_PERICENTER":"62.9274","LAUNCH_DATE":"2021-04-29","SEMIMAJOR_AXIS":"6925.316","GP_ID":"208533706","CENTER_NAME":"EARTH","TLE_LINE2":"2 48318  53.0541 303.3901 0001523  62.9274 297.1870 15.06410460 67862","DECAY_DATE":null,"MEAN_MOTION":"15.06410460","MEAN_MOTION_DDOT":"0.0000000000000","TIME_SYSTEM":"UTC","REF_FRAME":"TEME","EPHEMERIS_TYPE":"0","NORAD_CAT_ID":"48318","MEAN_ELEMENT_THEORY":"SGP4","ELEMENT_SET_NO":"999","MEAN_ANOMALY":"297.1870","FILE":"3518363","OBJECT_NAME":"STARLINK-2509","RA_OF_ASC_NODE":"303.3901","APOAPSIS":"548.236"},{"EPHEMERIS_TYPE":"0","NORAD_CAT_ID":"48319","MEAN_ANOMALY":"276.3582","ELEMENT_SET_NO":"999","MEAN_ELEMENT_THEORY":"SGP4","FILE":"3518196","OBJECT_NAME":"STARLINK-2512","RA_OF_ASC_NODE":"303.6962","APOAPSIS":"548.250","GP_ID":"208509283","TLE_LINE2":"2 48319  53.0559 303.6962 0001487  83.7576 276.3582 15.06397672 68495","CENTER_NAME":"EARTH","MEAN_MOTION":"15.06397672","DECAY_DATE":null,"TIME_SYSTEM":"UTC","REF_FRAME":"TEME","MEAN_MOTION_DDOT":"0.0000000000000","RCS_SIZE":"LARGE","PERIAPSIS":"546.191","OBJECT_TYPE":"PAYLOAD","BSTAR":"0.00017549000000","MEAN_MOTION_DOT":"0.00002333","ARG_OF_PERICENTER":"83.7576","SEMIMAJOR_AXIS":"6925.356","LAUNCH_DATE":"2021-04-29","INCLINATION":"53.0559","COUNTRY_CODE":"US","REV_AT_EPOCH":"6849","SITE":"AFETR","CLASSIFICATION_TYPE":"U","TLE_LINE1":"1 48319U 21036AV  22201.58865193  .00002333  00000-0  17549-3 0  9999","EPOCH":"2022-07-20T14:07:39.526752","OBJECT_ID":"2021-036AV","PERIOD":"95.592","ECCENTRICITY":"0.00014870"},{"INCLINATION":"53.0544","COUNTRY_CODE":"US","EPOCH":"2022-07-20T17:14:47.086656","OBJECT_ID":"2021-036AW","PERIOD":"95.591","ECCENTRICITY":"0.00012930","REV_AT_EPOCH":"6787","SITE":"AFETR","CLASSIFICATION_TYPE":"U","TLE_LINE1":"1 48320U 21036AW  22201.71860054  .00003790  00000-0  27301-3 0  9992","OBJECT_TYPE":"PAYLOAD","PERIAPSIS":"546.240","BSTAR":"0.00027301000000","MEAN_MOTION_DOT":"0.00003790","ARG_OF_PERICENTER":"70.5831","RCS_SIZE":"LARGE","SEMIMAJOR_AXIS":"6925.271","LAUNCH_DATE":"2021-04-29","GP_ID":"208534708","TLE_LINE2":"2 48320  53.0544 303.1238 0001293  70.5831 289.5298 15.06425384 67878","CENTER_NAME":"EARTH","MEAN_MOTION":"15.06425384","DECAY_DATE":null,"REF_FRAME":"TEME","TIME_SYSTEM":"UTC","MEAN_MOTION_DDOT":"0.0000000000000","ELEMENT_SET_NO":"999","MEAN_ANOMALY":"289.5298","MEAN_ELEMENT_THEORY":"SGP4","FILE":"3518363","EPHEMERIS_TYPE":"0","NORAD_CAT_ID":"48320","APOAPSIS":"548.031","OBJECT_NAME":"STARLINK-2029","RA_OF_ASC_NODE":"303.1238"},{"MEAN_MOTION":"15.06403874","DECAY_DATE":null,"TIME_SYSTEM":"UTC","REF_FRAME":"TEME","MEAN_MOTION_DDOT":"0.0000000000000","GP_ID":"208502722","TLE_LINE2":"2 48321  53.0552 303.7289 0001506  74.0161 286.0993 15.06403874 67854","CENTER_NAME":"EARTH","OBJECT_NAME":"STARLINK-2457","RA_OF_ASC_NODE":"303.7289","APOAPSIS":"548.245","EPHEMERIS_TYPE":"0","NORAD_CAT_ID":"48321","MEAN_ANOMALY":"286.0993","ELEMENT_SET_NO":"999","MEAN_ELEMENT_THEORY":"SGP4","FILE":"3518111","REV_AT_EPOCH":"6785","CLASSIFICATION_TYPE":"U","SITE":"AFETR","TLE_LINE1":"1 48321U 21036AX  22201.58223575  .00001429  00000-0  11481-3 0  9998","OBJECT_ID":"2021-036AX","EPOCH":"2022-07-20T13:58:25.168800","ECCENTRICITY":"0.00015060","PERIOD":"95.592","INCLINATION":"53.0552","COUNTRY_CODE":"US","SEMIMAJOR_AXIS":"6925.337","LAUNCH_DATE":"2021-04-29","RCS_SIZE":"LARGE","PERIAPSIS":"546.159","OBJECT_TYPE":"PAYLOAD","BSTAR":"0.00011481000000","MEAN_MOTION_DOT":"0.00001429","ARG_OF_PERICENTER":"74.0161"},{"FILE":"3518363","MEAN_ELEMENT_THEORY":"SGP4","ELEMENT_SET_NO":"999","MEAN_ANOMALY":"271.9455","NORAD_CAT_ID":"48322","EPHEMERIS_TYPE":"0","APOAPSIS":"548.097","RA_OF_ASC_NODE":"303.1474","OBJECT_NAME":"STARLINK-2477","TLE_LINE2":"2 48322  53.0555 303.1474 0001341  88.1688 271.9455 15.06414727 67872","CENTER_NAME":"EARTH","GP_ID":"208533205","MEAN_MOTION_DDOT":"0.0000000000000","REF_FRAME":"TEME","TIME_SYSTEM":"UTC","DECAY_DATE":null,"MEAN_MOTION":"15.06414727","ARG_OF_PERICENTER":"88.1688","OBJECT_TYPE":"PAYLOAD","PERIAPSIS":"546.240","MEAN_MOTION_DOT":"0.00003486","BSTAR":"0.00025272000000","RCS_SIZE":"LARGE","LAUNCH_DATE":"2021-04-29","SEMIMAJOR_AXIS":"6925.303","COUNTRY_CODE":"US","INCLINATION":"53.0555","ECCENTRICITY":"0.00013410","PERIOD":"95.591","OBJECT_ID":"2021-036AY","EPOCH":"2022-07-20T17:04:10.005024","TLE_LINE1":"1 48322U 21036AY  22201.71122691  .00003486  00000-0  25272-3 0  9999","SITE":"AFETR","CLASSIFICATION_TYPE":"U","REV_AT_EPOCH":"6787"},{"FILE":"3518080","MEAN_ELEMENT_THEORY":"SGP4","ELEMENT_SET_NO":"999","MEAN_ANOMALY":"285.9881","NORAD_CAT_ID":"48323","EPHEMERIS_TYPE":"0","APOAPSIS":"548.213","RA_OF_ASC_NODE":"303.7571","OBJECT_NAME":"STARLINK-2515","CENTER_NAME":"EARTH","TLE_LINE2":"2 48323  53.0550 303.7571 0001459  74.1268 285.9881 15.06403434 68446","GP_ID":"208481143","MEAN_MOTION_DDOT":"0.0000000000000","TIME_SYSTEM":"UTC","REF_FRAME":"TEME","MEAN_MOTION":"15.06403434","DECAY_DATE":null,"ARG_OF_PERICENTER":"74.1268","OBJECT_TYPE":"PAYLOAD","MEAN_MOTION_DOT":"0.00001603","PERIAPSIS":"546.193","BSTAR":"0.00012648000000","RCS_SIZE":"LARGE","LAUNCH_DATE":"2021-04-29","SEMIMAJOR_AXIS":"6925.338","COUNTRY_CODE":"US","INCLINATION":"53.0550","ECCENTRICITY":"0.00014590","PERIOD":"95.592","OBJECT_ID":"2021-036AZ","EPOCH":"2022-07-20T13:47:47.587776","TLE_LINE1":"1 48323U 21036AZ  22201.57485634  .00001603  00000-0  12648-3 0  9995","CLASSIFICATION_TYPE":"U","SITE":"AFETR","REV_AT_EPOCH":"6844"}];
